{
  "type": "FeatureCollection",
  "$comment": "Etruria (PLAN.md §2). Cores: Tuscany, Umbria and Lazio; the Po plain (Felsina, Spina); Campania (Capua). Periphery: eastern Corsica (Alalia). For the Cugnaux build this is the distant civilization that shows the drift gradient. Coordinates lon,lat; phase 0 coarse.",
  "features": [
    { "type": "Feature", "properties": { "civ": "etruria", "kind": "core", "name": "Tuscany, Umbria, Lazio" },
      "geometry": { "type": "Polygon", "coordinates": [[[10.0, 44.1], [11.5, 44.2], [12.4, 43.8], [12.8, 42.8], [12.6, 41.8], [11.8, 41.5], [10.5, 42.5], [10.0, 43.5], [10.0, 44.1]]] } },
    { "type": "Feature", "properties": { "civ": "etruria", "kind": "core", "name": "Po plain" },
      "geometry": { "type": "Polygon", "coordinates": [[[9.5, 45.3], [12.5, 45.0], [12.5, 44.4], [10.0, 44.4], [9.5, 45.3]]] } },
    { "type": "Feature", "properties": { "civ": "etruria", "kind": "core", "name": "Campania" },
      "geometry": { "type": "Polygon", "coordinates": [[[13.8, 41.4], [14.6, 41.4], [14.6, 40.6], [13.8, 40.6], [13.8, 41.4]]] } },
    { "type": "Feature", "properties": { "civ": "etruria", "kind": "periphery", "cost_km": 150, "name": "Eastern Corsica" },
      "geometry": { "type": "Polygon", "coordinates": [[[9.3, 42.7], [9.6, 42.7], [9.6, 41.9], [9.3, 41.9], [9.3, 42.7]]] } }
  ]
}
