{
  "type": "FeatureCollection",
  "$comment": "Hallstatt (PLAN.md §2). Coarse, hand-drawn, phase 0. kind=core is the Hallstatt culture zone proper (eastern France, Switzerland, southern Germany, Austria, Bohemia, Slovenia). kind=periphery is Gaul, northern Iberia, Britain and Ireland: the La Tène world, where Cugnaux and the Vieille-Toulouse oppidum sit. Coordinates are lon,lat.",
  "features": [
    {
      "type": "Feature",
      "properties": { "civ": "hallstatt", "kind": "core", "name": "Hallstatt culture zone" },
      "geometry": { "type": "Polygon", "coordinates": [[
        [4.5, 47.0], [5.0, 49.0], [8.0, 50.5], [13.0, 51.0], [16.0, 50.0], [17.0, 48.0],
        [15.5, 46.0], [12.0, 46.3], [9.0, 46.0], [6.5, 45.5], [4.5, 47.0]
      ]] }
    },
    {
      "type": "Feature",
      "properties": { "civ": "hallstatt", "kind": "periphery", "cost_km": 150, "name": "Gaul, northern Iberia, Britain, Ireland" },
      "geometry": { "type": "Polygon", "coordinates": [[
        [-11.0, 51.5], [-8.0, 55.5], [-6.0, 58.6], [-1.0, 58.5], [2.0, 53.0], [4.5, 52.5],
        [9.0, 54.5], [14.0, 54.5], [19.0, 51.5], [22.5, 48.5], [20.0, 46.0], [16.0, 45.0],
        [13.5, 45.5], [8.0, 44.2], [7.5, 43.7], [4.8, 43.3], [3.3, 43.1], [3.2, 42.4],
        [-1.0, 41.0], [-9.5, 41.5], [-9.5, 43.8], [-5.0, 48.3], [-11.0, 51.5]
      ]] }
    }
  ]
}
