{ "type": "FeatureCollection", "$comment": "Hopewell (PLAN §2): an exchange network. Core in the Ohio valley; periphery over the Mississippi watershed, Great Lakes, Appalachians and Gulf coast; corridors to Yellowstone obsidian, Superior copper and Florida shell. lon,lat.", "features": [
 { "type": "Feature", "properties": { "civ": "hopewell", "kind": "core", "name": "Ohio valley" }, "geometry": { "type": "Polygon", "coordinates": [[[-85.5,41.0],[-80.5,41.0],[-80.0,38.5],[-83.5,37.5],[-86.0,38.5],[-85.5,41.0]]] } },
 { "type": "Feature", "properties": { "civ": "hopewell", "kind": "periphery", "cost_km": 150, "name": "Mississippi watershed, Great Lakes, Appalachians, Gulf coast" }, "geometry": { "type": "Polygon", "coordinates": [[[-95.0,45.5],[-76.0,45.0],[-73.0,41.0],[-77.0,35.0],[-84.0,30.0],[-92.0,29.5],[-97.0,33.0],[-96.5,42.0],[-95.0,45.5]]] } },
 { "type": "Feature", "properties": { "civ": "hopewell", "kind": "corridor", "cost_km": 300, "name": "Yellowstone obsidian" }, "geometry": { "type": "LineString", "coordinates": [[-86.0,39.5],[-96.0,41.5],[-104.0,43.0],[-110.5,44.5]] } },
 { "type": "Feature", "properties": { "civ": "hopewell", "kind": "corridor", "cost_km": 250, "name": "Superior copper" }, "geometry": { "type": "LineString", "coordinates": [[-84.0,39.5],[-87.5,45.0],[-88.5,47.5]] } },
 { "type": "Feature", "properties": { "civ": "hopewell", "kind": "corridor", "cost_km": 250, "name": "Florida shell" }, "geometry": { "type": "LineString", "coordinates": [[-84.0,39.0],[-82.0,32.0],[-81.5,27.0]] } }
]}
