{ "type": "FeatureCollection", "$comment": "Lapita (PLAN §2): an ocean. Core in the Bismarck archipelago and Melanesia; periphery across island Southeast Asia, Taiwan, Polynesia to Rapa Nui and Aotearoa, Hawaii and Madagascar. Australia is deliberately not a layer (PLAN §2). Polygons are split at the antimeridian. lon,lat.", "features": [
 { "type": "Feature", "properties": { "civ": "lapita", "kind": "core", "name": "Bismarck archipelago and Melanesia" }, "geometry": { "type": "Polygon", "coordinates": [[[145.0,-4.0],[146.0,-1.5],[153.0,-3.0],[160.5,-9.0],[167.0,-14.0],[168.5,-20.0],[163.0,-22.0],[158.0,-13.0],[150.0,-7.0],[145.0,-4.0]]] } },
 { "type": "Feature", "properties": { "civ": "lapita", "kind": "periphery", "cost_km": 150, "name": "Island Southeast Asia and Taiwan" }, "geometry": { "type": "Polygon", "coordinates": [[[95.0,25.5],[122.5,25.5],[127.0,5.0],[135.0,-3.0],[141.0,-10.0],[130.0,-10.5],[118.0,-9.5],[105.0,-8.0],[95.0,5.0],[95.0,25.5]]] } },
 { "type": "Feature", "properties": { "civ": "lapita", "kind": "periphery", "cost_km": 150, "name": "Western Polynesia" }, "geometry": { "type": "Polygon", "coordinates": [[[165.0,-5.0],[180.0,-5.0],[180.0,-25.0],[170.0,-25.0],[165.0,-5.0]]] } },
 { "type": "Feature", "properties": { "civ": "lapita", "kind": "periphery", "cost_km": 150, "name": "Eastern Polynesia to Rapa Nui" }, "geometry": { "type": "Polygon", "coordinates": [[[-180.0,-5.0],[-135.0,-5.0],[-108.0,-28.0],[-140.0,-30.0],[-180.0,-25.0],[-180.0,-5.0]]] } },
 { "type": "Feature", "properties": { "civ": "lapita", "kind": "periphery", "cost_km": 150, "name": "Aotearoa" }, "geometry": { "type": "Polygon", "coordinates": [[[166.0,-34.0],[179.0,-34.0],[179.0,-47.5],[166.0,-47.5],[166.0,-34.0]]] } },
 { "type": "Feature", "properties": { "civ": "lapita", "kind": "periphery", "cost_km": 150, "name": "Hawaii" }, "geometry": { "type": "Polygon", "coordinates": [[[-161.0,23.0],[-154.0,23.0],[-154.0,18.5],[-161.0,18.5],[-161.0,23.0]]] } },
 { "type": "Feature", "properties": { "civ": "lapita", "kind": "periphery", "cost_km": 150, "name": "Madagascar" }, "geometry": { "type": "Polygon", "coordinates": [[[43.0,-11.5],[51.0,-11.5],[51.0,-26.0],[43.0,-26.0],[43.0,-11.5]]] } }
]}
