{ "type": "FeatureCollection", "$comment": "Scythia (PLAN §2). Coarse phase 0 layer. lon,lat.", "features": [
 { "type": "Feature", "properties": { "civ": "scythia", "kind": "core", "name": "Pontic steppe" }, "geometry": { "type": "Polygon", "coordinates": [[[28.0,49.5],[45.0,50.5],[47.0,46.5],[40.0,44.5],[33.0,45.0],[28.0,46.5],[28.0,49.5]]] } },
 { "type": "Feature", "properties": { "civ": "scythia", "kind": "periphery", "cost_km": 150, "name": "Steppe belt, Hungary to the Altai, north Caucasus" }, "geometry": { "type": "Polygon", "coordinates": [[[17.0,48.5],[20.0,47.0],[30.0,44.0],[45.0,43.0],[55.0,44.0],[70.0,47.0],[85.0,48.0],[92.0,50.0],[88.0,53.0],[70.0,54.0],[50.0,53.0],[30.0,51.0],[17.0,48.5]]] } }
]}
