{ "type": "FeatureCollection", "$comment": "Shang (PLAN §2). Coarse phase 0 layer. lon,lat.", "features": [
 { "type": "Feature", "properties": { "civ": "shang", "kind": "core", "name": "Yellow River, Henan" }, "geometry": { "type": "Polygon", "coordinates": [[[111.0,36.5],[116.5,37.0],[117.5,35.0],[115.5,33.5],[112.0,33.5],[110.5,34.5],[111.0,36.5]]] } },
 { "type": "Feature", "properties": { "civ": "shang", "kind": "periphery", "cost_km": 150, "name": "Shaanxi, Shandong, Hebei" }, "geometry": { "type": "Polygon", "coordinates": [[[107.0,38.5],[120.5,38.5],[122.0,36.0],[119.0,34.5],[112.0,32.0],[106.5,33.0],[107.0,38.5]]] } }
]}
