{ "type": "FeatureCollection", "$comment": "Sumer (PLAN §2). Coarse phase 0 layer. lon,lat.", "features": [
 { "type": "Feature", "properties": { "civ": "sumer", "kind": "core", "name": "Lower Mesopotamia" }, "geometry": { "type": "Polygon", "coordinates": [[[44.0,33.5],[48.0,33.0],[48.7,30.0],[47.5,29.8],[45.5,30.5],[44.0,31.5],[44.0,33.5]]] } },
 { "type": "Feature", "properties": { "civ": "sumer", "kind": "periphery", "cost_km": 150, "name": "Khuzestan and the Gulf coast" }, "geometry": { "type": "Polygon", "coordinates": [[[47.5,32.5],[50.5,32.0],[51.5,29.0],[49.0,28.5],[47.5,32.5]]] } },
 { "type": "Feature", "properties": { "civ": "sumer", "kind": "corridor", "cost_km": 200, "name": "Gulf run to Meluhha" }, "geometry": { "type": "LineString", "coordinates": [[48.5,29.5],[50.5,27.0],[52.5,25.5],[56.5,26.5],[58.5,24.5],[61.0,25.0],[66.9,24.8]] } }
]}
